{
    "links": {
        "self": "http://www.neowsapp.com/rest/v1/neo/3843752?api_key=iIulBulltgU6a56xZRHN4H3l9WmuAYTsLGpBGhQ2"
    },
    "id": "3843752",
    "neo_reference_id": "3843752",
    "name": "(2019 QV7)",
    "designation": "2019 QV7",
    "nasa_jpl_url": "http://ssd.jpl.nasa.gov/sbdb.cgi?sstr=3843752",
    "absolute_magnitude_h": 21.9,
    "estimated_diameter": {
        "kilometers": {
            "estimated_diameter_min": 0.1108038821,
            "estimated_diameter_max": 0.2477650126
        },
        "meters": {
            "estimated_diameter_min": 110.8038821264,
            "estimated_diameter_max": 247.7650126055
        },
        "miles": {
            "estimated_diameter_min": 0.068850319,
            "estimated_diameter_max": 0.1539539936
        },
        "feet": {
            "estimated_diameter_min": 363.5298086356,
            "estimated_diameter_max": 812.8773639568
        }
    },
    "is_potentially_hazardous_asteroid": false,
    "close_approach_data": [
        {
            "close_approach_date": "2019-07-16",
            "close_approach_date_full": "2019-Jul-16 02:26",
            "epoch_date_close_approach": 1563243960000,
            "relative_velocity": {
                "kilometers_per_second": "17.2901474297",
                "kilometers_per_hour": "62244.5307468304",
                "miles_per_hour": "38676.3307854402"
            },
            "miss_distance": {
                "astronomical": "0.4210139132",
                "lunar": "163.7744122348",
                "kilometers": "62982784.655084884",
                "miles": "39135687.6387200392"
            },
            "orbiting_body": "Earth"
        }
    ],
    "orbital_data": {
        "orbit_id": "6",
        "orbit_determination_date": "2019-09-22 05:56:28",
        "first_observation_date": "2019-08-30",
        "last_observation_date": "2019-09-22",
        "data_arc_in_days": 23,
        "observations_used": 37,
        "orbit_uncertainty": "8",
        "minimum_orbit_intersection": ".118743",
        "jupiter_tisserand_invariant": "2.834",
        "epoch_osculation": "2458730.5",
        "eccentricity": ".8092490660942238",
        "semi_major_axis": "2.562522352527222",
        "inclination": "12.88784853888133",
        "ascending_node_longitude": "182.3721733180056",
        "orbital_period": "1498.303936095351",
        "perihelion_distance": ".4888035318989944",
        "perihelion_argument": "48.99296362930394",
        "aphelion_distance": "4.63624117315545",
        "perihelion_time": "2458650.419742374177",
        "mean_anomaly": "19.24101782741471",
        "mean_motion": ".2402716774129129",
        "equinox": "J2000",
        "orbit_class": {
            "orbit_class_type": "APO",
            "orbit_class_description": "Near-Earth asteroid orbits which cross the Earth’s orbit similar to that of 1862 Apollo",
            "orbit_class_range": "a (semi-major axis) > 1.0 AU; q (perihelion) < 1.017 AU"
        }
    },
    "is_sentry_object": false
}